[{"OBJECT_NAME":"ONEWEB-0235","OBJECT_ID":"2021-045E","EPOCH":"2026-02-05T02:13:35.811840","MEAN_MOTION":13.15548743,"ECCENTRICITY":0.00010776,"INCLINATION":87.8994,"RA_OF_ASC_NODE":285.5569,"ARG_OF_PERICENTER":85.0253,"MEAN_ANOMALY":275.1,"EPHEMERIS_TYPE":0,"CLASSIFICATION_TYPE":"U","NORAD_CAT_ID":48771,"ELEMENT_SET_NO":999,"REV_AT_EPOCH":22701,"BSTAR":-0.00020619113,"MEAN_MOTION_DOT":-6.5e-7,"MEAN_MOTION_DDOT":0},{"OBJECT_NAME":"ONEWEB-0242","OBJECT_ID":"2021-045F","EPOCH":"2026-02-04T22:25:25.584096","MEAN_MOTION":13.15548596,"ECCENTRICITY":0.0001366,"INCLINATION":87.8994,"RA_OF_ASC_NODE":285.5843,"ARG_OF_PERICENTER":75.1941,"MEAN_ANOMALY":284.9341,"EPHEMERIS_TYPE":0,"CLASSIFICATION_TYPE":"U","NORAD_CAT_ID":48772,"ELEMENT_SET_NO":999,"REV_AT_EPOCH":22703,"BSTAR":-8.7116927e-5,"MEAN_MOTION_DOT":-2.0e-7,"MEAN_MOTION_DDOT":0},{"OBJECT_NAME":"ONEWEB-0241","OBJECT_ID":"2021-045G","EPOCH":"2026-02-04T16:38:36.050784","MEAN_MOTION":13.1554905,"ECCENTRICITY":0.00013164,"INCLINATION":87.8987,"RA_OF_ASC_NODE":285.6641,"ARG_OF_PERICENTER":96.7617,"MEAN_ANOMALY":263.3663,"EPHEMERIS_TYPE":0,"CLASSIFICATION_TYPE":"U","NORAD_CAT_ID":48773,"ELEMENT_SET_NO":999,"REV_AT_EPOCH":22691,"BSTAR":0.00038118213,"MEAN_MOTION_DOT":1.56e-6,"MEAN_MOTION_DDOT":0},{"OBJECT_NAME":"ONEWEB-0243","OBJECT_ID":"2021-045H","EPOCH":"2026-02-05T02:31:50.626848","MEAN_MOTION":13.15548706,"ECCENTRICITY":0.00011764,"INCLINATION":87.8986,"RA_OF_ASC_NODE":285.5931,"ARG_OF_PERICENTER":73.755,"MEAN_ANOMALY":286.371,"EPHEMERIS_TYPE":0,"CLASSIFICATION_TYPE":"U","NORAD_CAT_ID":48774,"ELEMENT_SET_NO":999,"REV_AT_EPOCH":22699,"BSTAR":-0.0002493224,"MEAN_MOTION_DOT":-8.1e-7,"MEAN_MOTION_DDOT":0},{"OBJECT_NAME":"ONEWEB-0222","OBJECT_ID":"2021-045J","EPOCH":"2026-02-04T17:00:16.101216","MEAN_MOTION":13.15549831,"ECCENTRICITY":0.00013827,"INCLINATION":87.8996,"RA_OF_ASC_NODE":285.6295,"ARG_OF_PERICENTER":82.9352,"MEAN_ANOMALY":277.1935,"EPHEMERIS_TYPE":0,"CLASSIFICATION_TYPE":"U","NORAD_CAT_ID":48775,"ELEMENT_SET_NO":999,"REV_AT_EPOCH":22698,"BSTAR":-1.6682429e-5,"MEAN_MOTION_DOT":7.0e-8,"MEAN_MOTION_DDOT":0},{"OBJECT_NAME":"ONEWEB-0244","OBJECT_ID":"2021-045K","EPOCH":"2026-02-04T23:06:29.870208","MEAN_MOTION":13.15548125,"ECCENTRICITY":0.00013662,"INCLINATION":87.8996,"RA_OF_ASC_NODE":285.5687,"ARG_OF_PERICENTER":78.5565,"MEAN_ANOMALY":281.5718,"EPHEMERIS_TYPE":0,"CLASSIFICATION_TYPE":"U","NORAD_CAT_ID":48776,"ELEMENT_SET_NO":999,"REV_AT_EPOCH":22758,"BSTAR":-0.00021994083,"MEAN_MOTION_DOT":-7.0e-7,"MEAN_MOTION_DDOT":0},{"OBJECT_NAME":"ONEWEB-0247","OBJECT_ID":"2021-045L","EPOCH":"2026-02-05T02:40:57.678816","MEAN_MOTION":13.15550186,"ECCENTRICITY":6.807e-5,"INCLINATION":87.898,"RA_OF_ASC_NODE":285.587,"ARG_OF_PERICENTER":66.6008,"MEAN_ANOMALY":293.5194,"EPHEMERIS_TYPE":0,"CLASSIFICATION_TYPE":"U","NORAD_CAT_ID":48777,"ELEMENT_SET_NO":999,"REV_AT_EPOCH":22704,"BSTAR":-0.00014908684,"MEAN_MOTION_DOT":-4.3e-7,"MEAN_MOTION_DDOT":0},{"OBJECT_NAME":"ONEWEB-0245","OBJECT_ID":"2021-045M","EPOCH":"2026-02-05T02:34:08.055552","MEAN_MOTION":13.15549016,"ECCENTRICITY":0.00014954,"INCLINATION":87.8989,"RA_OF_ASC_NODE":285.5557,"ARG_OF_PERICENTER":87.8573,"MEAN_ANOMALY":272.2729,"EPHEMERIS_TYPE":0,"CLASSIFICATION_TYPE":"U","NORAD_CAT_ID":48778,"ELEMENT_SET_NO":999,"REV_AT_EPOCH":22701,"BSTAR":-0.00034573334,"MEAN_MOTION_DOT":-1.17e-6,"MEAN_MOTION_DDOT":0},{"OBJECT_NAME":"ONEWEB-0229","OBJECT_ID":"2021-045N","EPOCH":"2026-02-05T02:27:17.043840","MEAN_MOTION":13.15548708,"ECCENTRICITY":0.00014331,"INCLINATION":87.8995,"RA_OF_ASC_NODE":285.5547,"ARG_OF_PERICENTER":75.2715,"MEAN_ANOMALY":284.8574,"EPHEMERIS_TYPE":0,"CLASSIFICATION_TYPE":"U","NORAD_CAT_ID":48779,"ELEMENT_SET_NO":999,"REV_AT_EPOCH":22704,"BSTAR":-0.00025292024,"MEAN_MOTION_DOT":-8.2e-7,"MEAN_MOTION_DDOT":0},{"OBJECT_NAME":"ONEWEB-0228","OBJECT_ID":"2021-045P","EPOCH":"2026-02-05T03:15:23.867424","MEAN_MOTION":13.15548233,"ECCENTRICITY":0.00014227,"INCLINATION":87.8995,"RA_OF_ASC_NODE":285.5353,"ARG_OF_PERICENTER":81.2219,"MEAN_ANOMALY":278.9073,"EPHEMERIS_TYPE":0,"CLASSIFICATION_TYPE":"U","NORAD_CAT_ID":48780,"ELEMENT_SET_NO":999,"REV_AT_EPOCH":22696,"BSTAR":0.00052850343,"MEAN_MOTION_DOT":2.12e-6,"MEAN_MOTION_DDOT":0},{"OBJECT_NAME":"ONEWEB-0232","OBJECT_ID":"2021-045Q","EPOCH":"2026-02-05T02:38:41.708544","MEAN_MOTION":13.15548998,"ECCENTRICITY":0.00014983,"INCLINATION":87.9004,"RA_OF_ASC_NODE":285.5364,"ARG_OF_PERICENTER":79.7781,"MEAN_ANOMALY":280.3518,"EPHEMERIS_TYPE":0,"CLASSIFICATION_TYPE":"U","NORAD_CAT_ID":48781,"ELEMENT_SET_NO":999,"REV_AT_EPOCH":22728,"BSTAR":-6.6785974e-5,"MEAN_MOTION_DOT":-1.2e-7,"MEAN_MOTION_DDOT":0},{"OBJECT_NAME":"ONEWEB-0231","OBJECT_ID":"2021-045R","EPOCH":"2026-02-05T03:56:17.307744","MEAN_MOTION":13.15548396,"ECCENTRICITY":0.00013185,"INCLINATION":87.8989,"RA_OF_ASC_NODE":285.558,"ARG_OF_PERICENTER":82.0808,"MEAN_ANOMALY":278.0472,"EPHEMERIS_TYPE":0,"CLASSIFICATION_TYPE":"U","NORAD_CAT_ID":48782,"ELEMENT_SET_NO":999,"REV_AT_EPOCH":22698,"BSTAR":-0.00036030411,"MEAN_MOTION_DOT":-1.23e-6,"MEAN_MOTION_DDOT":0},{"OBJECT_NAME":"ONEWEB-0234","OBJECT_ID":"2021-045S","EPOCH":"2026-02-05T03:01:19.364448","MEAN_MOTION":13.15547542,"ECCENTRICITY":0.00022049,"INCLINATION":87.8985,"RA_OF_ASC_NODE":285.5433,"ARG_OF_PERICENTER":96.4553,"MEAN_ANOMALY":263.6828,"EPHEMERIS_TYPE":0,"CLASSIFICATION_TYPE":"U","NORAD_CAT_ID":48783,"ELEMENT_SET_NO":999,"REV_AT_EPOCH":22711,"BSTAR":0.00026152587,"MEAN_MOTION_DOT":1.11e-6,"MEAN_MOTION_DDOT":0},{"OBJECT_NAME":"ONEWEB-0238","OBJECT_ID":"2021-045T","EPOCH":"2026-02-05T03:01:42.270816","MEAN_MOTION":13.1554782,"ECCENTRICITY":0.00018938,"INCLINATION":87.8986,"RA_OF_ASC_NODE":285.5365,"ARG_OF_PERICENTER":89.6643,"MEAN_ANOMALY":270.4705,"EPHEMERIS_TYPE":0,"CLASSIFICATION_TYPE":"U","NORAD_CAT_ID":48784,"ELEMENT_SET_NO":999,"REV_AT_EPOCH":22701,"BSTAR":0.0001871517,"MEAN_MOTION_DOT":8.3e-7,"MEAN_MOTION_DDOT":0},{"OBJECT_NAME":"ONEWEB-0240","OBJECT_ID":"2021-045U","EPOCH":"2026-02-05T03:32:17.729952","MEAN_MOTION":13.15550639,"ECCENTRICITY":0.00013273,"INCLINATION":87.8997,"RA_OF_ASC_NODE":285.5312,"ARG_OF_PERICENTER":89.6595,"MEAN_ANOMALY":270.4687,"EPHEMERIS_TYPE":0,"CLASSIFICATION_TYPE":"U","NORAD_CAT_ID":48785,"ELEMENT_SET_NO":999,"REV_AT_EPOCH":22704,"BSTAR":0.00034427695,"MEAN_MOTION_DOT":1.42e-6,"MEAN_MOTION_DDOT":0},{"OBJECT_NAME":"ONEWEB-0246","OBJECT_ID":"2021-045V","EPOCH":"2026-02-05T03:24:20.075328","MEAN_MOTION":13.15548664,"ECCENTRICITY":0.00014352,"INCLINATION":87.8993,"RA_OF_ASC_NODE":285.5423,"ARG_OF_PERICENTER":75.961,"MEAN_ANOMALY":284.168,"EPHEMERIS_TYPE":0,"CLASSIFICATION_TYPE":"U","NORAD_CAT_ID":48786,"ELEMENT_SET_NO":999,"REV_AT_EPOCH":22691,"BSTAR":0.00040470284,"MEAN_MOTION_DOT":1.65e-6,"MEAN_MOTION_DDOT":0},{"OBJECT_NAME":"ONEWEB-0210","OBJECT_ID":"2021-045W","EPOCH":"2026-02-04T17:40:13.185408","MEAN_MOTION":13.15558089,"ECCENTRICITY":9.139e-5,"INCLINATION":87.8996,"RA_OF_ASC_NODE":285.62,"ARG_OF_PERICENTER":48.8406,"MEAN_ANOMALY":311.2803,"EPHEMERIS_TYPE":0,"CLASSIFICATION_TYPE":"U","NORAD_CAT_ID":48787,"ELEMENT_SET_NO":999,"REV_AT_EPOCH":22690,"BSTAR":3.0018607e-5,"MEAN_MOTION_DOT":2.4e-7,"MEAN_MOTION_DDOT":0},{"OBJECT_NAME":"ONEWEB-0214","OBJECT_ID":"2021-045X","EPOCH":"2026-02-04T16:03:13.817088","MEAN_MOTION":13.15549742,"ECCENTRICITY":0.00014258,"INCLINATION":87.8997,"RA_OF_ASC_NODE":285.6286,"ARG_OF_PERICENTER":64.2079,"MEAN_ANOMALY":295.9198,"EPHEMERIS_TYPE":0,"CLASSIFICATION_TYPE":"U","NORAD_CAT_ID":48788,"ELEMENT_SET_NO":999,"REV_AT_EPOCH":22686,"BSTAR":0.00078973315,"MEAN_MOTION_DOT":3.1e-6,"MEAN_MOTION_DDOT":0},{"OBJECT_NAME":"ONEWEB-0221","OBJECT_ID":"2021-045Y","EPOCH":"2026-02-04T23:31:35.802336","MEAN_MOTION":13.15548222,"ECCENTRICITY":0.00013407,"INCLINATION":87.899,"RA_OF_ASC_NODE":285.5777,"ARG_OF_PERICENTER":84.5024,"MEAN_ANOMALY":275.626,"EPHEMERIS_TYPE":0,"CLASSIFICATION_TYPE":"U","NORAD_CAT_ID":48789,"ELEMENT_SET_NO":999,"REV_AT_EPOCH":22699,"BSTAR":0.00014409198,"MEAN_MOTION_DOT":6.7e-7,"MEAN_MOTION_DDOT":0},{"OBJECT_NAME":"ONEWEB-0213","OBJECT_ID":"2021-045Z","EPOCH":"2026-02-05T02:54:39.671136","MEAN_MOTION":13.15549288,"ECCENTRICITY":0.00012458,"INCLINATION":87.8989,"RA_OF_ASC_NODE":285.5534,"ARG_OF_PERICENTER":78.911,"MEAN_ANOMALY":281.216,"EPHEMERIS_TYPE":0,"CLASSIFICATION_TYPE":"U","NORAD_CAT_ID":48790,"ELEMENT_SET_NO":999,"REV_AT_EPOCH":22707,"BSTAR":0.00039552417,"MEAN_MOTION_DOT":1.62e-6,"MEAN_MOTION_DDOT":0},{"OBJECT_NAME":"ONEWEB-0212","OBJECT_ID":"2021-045AA","EPOCH":"2026-02-04T22:42:31.731840","MEAN_MOTION":13.15547678,"ECCENTRICITY":0.00015375,"INCLINATION":87.8995,"RA_OF_ASC_NODE":285.5826,"ARG_OF_PERICENTER":80.3956,"MEAN_ANOMALY":279.7348,"EPHEMERIS_TYPE":0,"CLASSIFICATION_TYPE":"U","NORAD_CAT_ID":48791,"ELEMENT_SET_NO":999,"REV_AT_EPOCH":22704,"BSTAR":-0.00057513389,"MEAN_MOTION_DOT":-2.04e-6,"MEAN_MOTION_DDOT":0},{"OBJECT_NAME":"ONEWEB-0227","OBJECT_ID":"2021-045AB","EPOCH":"2026-02-05T02:20:26.643840","MEAN_MOTION":13.15548212,"ECCENTRICITY":0.00014956,"INCLINATION":87.8986,"RA_OF_ASC_NODE":285.5567,"ARG_OF_PERICENTER":82.5603,"MEAN_ANOMALY":277.5698,"EPHEMERIS_TYPE":0,"CLASSIFICATION_TYPE":"U","NORAD_CAT_ID":48792,"ELEMENT_SET_NO":999,"REV_AT_EPOCH":22701,"BSTAR":-0.00037069983,"MEAN_MOTION_DOT":-1.27e-6,"MEAN_MOTION_DDOT":0},{"OBJECT_NAME":"ONEWEB-0226","OBJECT_ID":"2021-045AC","EPOCH":"2026-02-04T22:32:15.905472","MEAN_MOTION":13.15548617,"ECCENTRICITY":0.00011838,"INCLINATION":87.8985,"RA_OF_ASC_NODE":285.5985,"ARG_OF_PERICENTER":73.5065,"MEAN_ANOMALY":286.6195,"EPHEMERIS_TYPE":0,"CLASSIFICATION_TYPE":"U","NORAD_CAT_ID":48793,"ELEMENT_SET_NO":999,"REV_AT_EPOCH":22696,"BSTAR":-0.00045352523,"MEAN_MOTION_DOT":-1.58e-6,"MEAN_MOTION_DDOT":0}]
